COSMOS 2534 [GLONASS-M] 
1 44299U 19030A   26197.64953360  .00000052  00000+0  00000+0 0  9997
2 44299  64.3705 191.6243 0013502 275.0108 146.6615  2.13102191 55554
BEIDOU-3 IGSO-2         
1 44337U 19035A   26201.28533594 -.00000108  00000+0  00000+0 0  9997
2 44337  55.2517 158.5718 0039266 216.3906 144.0267  1.00256016 26009
NAVSTAR 78 (USA 293)    
1 44506U 19056A   26201.55760965 -.00000109  00000+0  00000+0 0  9993
2 44506  55.6190 329.8162 0063650 198.2384 164.9802  2.00570361 50743
BEIDOU-3 M24            
1 44542U 19061A   26200.99661819  .00000073  00000+0  00000+0 0  9993
2 44542  54.3974 181.6213 0008700 359.9963 359.9812  1.86229210 46406
BEIDOU-3 M23            
1 44543U 19061B   26201.24462873  .00000075  00000+0  00000+0 0  9994
2 44543  54.3961 181.5811 0006013 341.7340  95.9084  1.86227453 46415
EUTELSAT 5 WEST B       
1 44624U 19067A   26201.83114766 -.00000043  00000+0  00000+0 0  9996
2 44624   0.0752 323.5301 0003199 154.9122 114.3565  1.00271669 24776
BEIDOU-3 M22            
1 44793U 19078A   26201.37395025 -.00000097  00000+0  00000+0 0  9992
2 44793  53.9034 298.6592 0005612  50.4181 309.6692  1.86227188 45262
BEIDOU-3 M21            
1 44794U 19078B   26200.97683179 -.00000096  00000+0  00000+0 0  9997
2 44794  53.8770 298.6333 0003525  49.7600 310.3090  1.86227606 45266
COSMOS 2544 [GLONASS-M] 
1 44850U 19088A   26199.93909424 -.00000038  00000+0  00000+0 0  9994
2 44850  65.5828  72.6716 0012049 253.1294 106.8089  2.13102904 51390
BEIDOU-3 M19            
1 44864U 19090A   26200.30539355 -.00000073  00000+0  00000+0 0  9997
2 44864  56.5872  61.7289 0016607 297.5472 169.9419  1.86231477 44837
BEIDOU-3 M20            
1 44865U 19090B   26201.33798360 -.00000078  00000+0  00000+0 0  9990
2 44865  56.5902  61.7294 0013750 313.4468 215.9166  1.86231473 44834
COSMOS 2545 [GLONASS-M] 
1 45358U 20018A   26201.07254601 -.00000083  00000+0  00000+0 0  9992
2 45358  64.3333 311.2627 0009901 230.0825 129.8537  2.13102411 49362
NAVSTAR 79 (USA 304)    
1 45854U 20041A   26201.89744807 -.00000087  00000+0  00000+0 0  9995
2 45854  56.6926  27.6360 0065502 204.6753 340.8282  2.00557989 44719
GALAXY 30 (G-30)        
1 46114U 20056C   26201.66482606  .00000036  00000+0  00000+0 0  9995
2 46114   0.0184  58.7653 0002159  56.9350 297.0671  1.00270661 21626
COSMOS 2547 [GLONASS-K] 
1 46805U 20075A   26201.26230815  .00000083  00000+0  00000+0 0  9994
2 46805  64.6016 191.3717 0009465 239.9348 119.9732  2.13099966 44611
NAVSTAR 80 (USA 309)    
1 46826U 20078A   26201.40901153  .00000066  00000+0  00000+0 0  9997
2 46826  53.9767 209.4308 0074664 207.9413 322.4110  2.00565064 42179
QZS-1R (MICHIBIKI-1R)   
1 49336U 21096A   26200.56101544 -.00000322  00000+0  00000+0 0  9995
2 49336  37.5263  79.1015 0755512 272.3091 279.1178  1.00244085 17338
GSAT0223 (GALILEO 27)   
1 49809U 21116A   26201.37308213 -.00000107  00000+0  00000+0 0  9996
2 49809  57.1482 340.7789 0002482 195.0305 131.7493  1.70476368 28747
GSAT0224 (GALILEO 28)   
1 49810U 21116B   26200.95392787 -.00000107  00000+0  00000+0 0  9990
2 49810  57.1487 340.7887 0001903 182.1498   0.0180  1.70476408 28768
COSMOS 2557 [GLONASS-K] 
1 52984U 22075A   26200.48789767 -.00000080  00000+0  00000+0 0  9997
2 52984  64.2776 313.3470 0010902 270.7384  89.1574  2.13102100 31408
COSMOS 2559 [GLONASS-K] 
1 54031U 22130A   26201.24612110 -.00000085  00000+0  00000+0 0  9991
2 54031  64.2495 313.4030 0013165 181.6357 178.3807  2.13101775 29390
COSMOS 2564 [GLONASS-M] 
1 54377U 22161A   26201.55847633  .00000086  00000+0  00000+0 0  9992
2 54377  64.7442 191.6039 0012180 224.7741 135.1307  2.13102066 28341
NAVSTAR 82 (USA 343)    
1 55268U 23009A   26201.60569105  .00000029  00000+0  00000+0 0  9992
2 55268  55.1257 147.2053 0005286 339.0004 198.4380  2.00569363 25919
COSMOS 2569 [GLONASS-K2]
1 57517U 23114A   26201.10150399 -.00000049  00000+0  00000+0 0  9997
2 57517  65.3210  71.5108 0009490 295.5049  64.4648  2.13103821 22964
BEIDOU-3 M28            
1 58654U 23207A   26201.05374679 -.00000079  00000+0  00000+0 0  9999
2 58654  55.7822  61.1944 0002258   8.4424 351.6234  1.86229765 17450
BEIDOU-3 M26            
1 58655U 23207B   26200.85124257 -.00000078  00000+0  00000+0 0  9991
2 58655  55.7843  61.1877 0001767 324.3681  35.6824  1.86229761 17436
